OBJECT_NAME,OBJECT_ID,EPOCH,MEAN_MOTION,ECCENTRICITY,INCLINATION,RA_OF_ASC_NODE,ARG_OF_PERICENTER,MEAN_ANOMALY,EPHEMERIS_TYPE,CLASSIFICATION_TYPE,NORAD_CAT_ID,ELEMENT_SET_NO,REV_AT_EPOCH,BSTAR,MEAN_MOTION_DOT,MEAN_MOTION_DDOT
STARLINK-6136,2023-065AP,2026-06-16T21:20:24.202464,15.27580225,.00011486,43.0036,26.7527,259.7200,100.3522,0,U,56540,999,17160,.30099913E-4,.566E-5,0
STARLINK-6249,2023-065AQ,2026-06-16T21:50:43.045152,15.27580639,.00014947,43.0039,23.4986,270.7789,89.2891,0,U,56541,999,17164,.185881E-4,.249E-5,0
STARLINK-6266,2023-065AR,2026-06-16T21:09:18.315936,15.27579108,.00014353,43.0045,26.6908,271.3273,88.7415,0,U,56542,999,17160,.23123779E-4,.374E-5,0
STARLINK-6226,2023-065AT,2026-06-16T20:42:15.755040,15.27577213,.00022481,43.0077,23.1559,274.4535,85.6060,0,U,56544,999,17164,-.3082772E-5,-.347E-5,0
STARLINK-6086,2023-065AU,2026-06-17T22:40:34.333248,15.27577096,.00010641,43.0042,17.5055,261.2547,98.8184,0,U,56545,999,17180,.10250289E-4,.2E-6,0
STARLINK-6187,2023-065AV,2026-06-17T22:51:40.024512,15.27596754,.00029211,43.0036,17.5659,267.7486,92.3031,0,U,56546,999,17180,.46607776E-3,.12592E-3,0
STARLINK-6291,2023-065AW,2026-06-17T22:20:13.280928,15.27575648,.00012008,43.0022,17.3942,266.9903,93.0811,0,U,56547,999,17180,.5528951E-5,-.11E-5,0
STARLINK-6244,2023-065AX,2026-06-17T00:00:02.000160,15.27555263,.00013641,43.0036,23.0078,275.5529,211.8428,0,U,56548,999,577,.19403962E-2,.53481E-3,0
STARLINK-6263,2023-065AY,2026-06-17T22:25:46.325280,15.27576216,.00011407,43.0023,17.4198,247.4106,112.6625,0,U,56549,999,17180,.962471E-5,.3E-7,0
STARLINK-6255,2023-065AZ,2026-06-17T23:00:55.503936,15.27575490,.00010771,43.0032,17.6076,263.7912,96.2817,0,U,56550,999,17180,.204278E-6,-.256E-5,0
STARLINK-6199,2023-065BA,2026-06-17T22:36:52.343136,15.27575602,.00010863,43.0054,17.4782,260.1953,99.8776,0,U,56551,999,17180,.314689E-5,-.175E-5,0
STARLINK-5802,2023-065BB,2026-06-17T22:47:59.085888,15.27561011,.00005958,43.0039,17.5318,262.7757,97.3027,0,U,56552,999,17180,-.73939426E-4,-.2295E-4,0
STARLINK-6074,2023-065BC,2026-06-16T21:02:36.616416,15.27578221,.00015912,43.0075,23.2420,263.1355,96.9315,0,U,56553,999,17164,.18540699E-4,.248E-5,0
STARLINK-6295,2023-065BD,2026-06-16T21:47:01.151808,15.27575440,.00011905,43.0058,23.4741,266.1691,93.9024,0,U,56554,999,17164,.9677478E-5,.4E-7,0
STARLINK-6252,2023-065BE,2026-06-16T20:47:48.402816,15.27580457,.0001765,43.0122,23.1748,270.9965,89.0685,0,U,56555,999,17164,.29063053E-4,.537E-5,0
STARLINK-5302,2023-065BF,2026-06-16T21:08:09.687552,15.27578328,.00014587,43.0024,23.2710,251.4678,108.6015,0,U,56556,999,17164,.19374906E-4,.271E-5,0
STARLINK-6265,2023-065BG,2026-06-16T21:24:48.973536,15.27576057,.00010814,43.0034,23.3534,264.5991,95.4737,0,U,56557,999,17164,.27771524E-4,.502E-5,0
STARLINK-6286,2023-065BH,2026-06-17T22:32:27.345696,15.27577524,.00016307,43.0030,20.8556,251.8316,108.2358,0,U,56558,999,17176,.6200941E-5,-.92E-6,0
BEIDOU-3 G4,2023-066A,2026-06-17T22:11:19.257216,1.00273446,.00043481,0.4856,331.7510,180.5639,226.7214,0,U,56564,999,1140,0,-.286E-5,0
STARLINK-30122,2023-067A,2026-06-17T01:15:00.260640,15.27583376,.00011572,43.0033,76.9131,276.3757,83.6963,0,U,56688,999,17088,.39636799E-4,.829E-5,0
STARLINK-30129,2023-067B,2026-06-17T00:48:23.265504,15.27585305,.00005074,43.0017,80.1898,232.6635,127.4170,0,U,56689,999,17077,.38909133E-4,.809E-5,0
STARLINK-30124,2023-067C,2026-06-17T00:57:39.086208,15.27575207,.0001156,43.0001,80.2487,266.8296,93.2423,0,U,56690,999,17077,.56748007E-4,.13E-4,0
STARLINK-30036,2023-067E,2026-06-17T00:44:41.892288,15.27579778,.00012778,43.0024,80.2000,253.0285,107.0426,0,U,56692,999,16964,.33206693E-4,.652E-5,0
STARLINK-30067,2023-067F,2026-06-17T00:53:57.184224,15.27579174,.00014312,43.0039,80.2478,264.7824,95.2865,0,U,56693,999,17077,.27155131E-4,.485E-5,0
STARLINK-30126,2023-067G,2026-06-16T10:23:54.985056,15.27578532,.00013136,43.0047,76.6458,256.5859,103.4847,0,U,56694,999,17076,.41798091E-4,.888E-5,0
STARLINK-30121,2023-067H,2026-06-17T00:59:29.558112,15.27584390,.00011307,43.0027,80.2565,266.0988,93.9734,0,U,56695,999,17077,.62253612E-4,.1452E-4,0
STARLINK-30130,2023-067K,2026-06-17T00:24:37.560960,15.27585727,.00006281,43.0103,69.8743,251.4243,108.6541,0,U,56697,999,17063,.59174392E-4,.1367E-4,0
STARLINK-30068,2023-067L,2026-06-14T10:17:15.234720,15.27574269,.00010351,43.0061,73.5605,247.7408,112.3334,0,U,56698,999,17036,-.12434447E-4,-.604E-5,0
STARLINK-30127,2023-067M,2026-06-16T01:38:15.704448,15.27578535,.00009814,43.0036,85.8708,266.0480,94.0260,0,U,56699,999,17062,.25545109E-4,.441E-5,0
STARLINK-30053,2023-067N,2026-06-17T00:56:04.970688,15.27577438,.0001928,43.0068,70.0447,282.2845,77.7791,0,U,56700,999,17089,.57310388E-4,.1315E-4,0
