STARLINK-6136           
1 56540U 23065AP  26167.88916901  .00000566  00000+0  30100-4 0  9994
2 56540  43.0036  26.7527 0001148 259.7200 100.3522 15.27580225171601
STARLINK-6249           
1 56541U 23065AQ  26167.91022043  .00000249  00000+0  18588-4 0  9998
2 56541  43.0039  23.4986 0001494 270.7789  89.2891 15.27580639171644
STARLINK-6266           
1 56542U 23065AR  26167.88146199  .00000374  00000+0  23124-4 0  9995
2 56542  43.0045  26.6908 0001435 271.3273  88.7415 15.27579108171602
STARLINK-6226           
1 56544U 23065AT  26167.86268235 -.00000347  00000+0 -30828-5 0  9993
2 56544  43.0077  23.1559 0002248 274.4535  85.6060 15.27577213171642
STARLINK-6086           
1 56545U 23065AU  26168.94484182  .00000020  00000+0  10250-4 0  9997
2 56545  43.0042  17.5055 0001064 261.2547  98.8184 15.27577096171805
STARLINK-6187           
1 56546U 23065AV  26168.95254658  .00012592  00000+0  46608-3 0  9994
2 56546  43.0036  17.5659 0002921 267.7486  92.3031 15.27596754171807
STARLINK-6291           
1 56547U 23065AW  26168.93070927 -.00000110  00000+0  55290-5 0  9991
2 56547  43.0022  17.3942 0001200 266.9903  93.0811 15.27575648171803
STARLINK-6244           
1 56548U 23065AX  26168.00002315  .00053481  00000+0  19404-2 0  9998
2 56548  43.0036  23.0078 0001364 275.5529 211.8428 15.27555263  5771
STARLINK-6263           
1 56549U 23065AY  26168.93456395  .00000003  00000+0  96247-5 0  9997
2 56549  43.0023  17.4198 0001140 247.4106 112.6625 15.27576216171805
STARLINK-6255           
1 56550U 23065AZ  26168.95897574 -.00000256  00000+0  20428-6 0  9999
2 56550  43.0032  17.6076 0001077 263.7912  96.2817 15.27575490171802
STARLINK-6199           
1 56551U 23065BA  26168.94227249 -.00000175  00000+0  31469-5 0  9991
2 56551  43.0054  17.4782 0001086 260.1953  99.8776 15.27575602171803
STARLINK-5802           
1 56552U 23065BB  26168.94998942 -.00002295  00000+0 -73939-4 0  9990
2 56552  43.0039  17.5318 0000595 262.7757  97.3027 15.27561011171808
STARLINK-6074           
1 56553U 23065BC  26167.87681269  .00000248  00000+0  18541-4 0  9995
2 56553  43.0075  23.2420 0001591 263.1355  96.9315 15.27578221171641
STARLINK-6295           
1 56554U 23065BD  26167.90765222  .00000004  00000+0  96775-5 0  9998
2 56554  43.0058  23.4741 0001190 266.1691  93.9024 15.27575440171646
STARLINK-6252           
1 56555U 23065BE  26167.86653244  .00000537  00000+0  29063-4 0  9990
2 56555  43.0122  23.1748 0001765 270.9965  89.0685 15.27580457171641
STARLINK-5302           
1 56556U 23065BF  26167.88066768  .00000271  00000+0  19375-4 0  9992
2 56556  43.0024  23.2710 0001458 251.4678 108.6015 15.27578328171646
STARLINK-6265           
1 56557U 23065BG  26167.89223349  .00000502  00000+0  27772-4 0  9991
2 56557  43.0034  23.3534 0001081 264.5991  95.4737 15.27576057171649
STARLINK-6286           
1 56558U 23065BH  26168.93920539 -.00000092  00000+0  62009-5 0  9991
2 56558  43.0030  20.8556 0001630 251.8316 108.2358 15.27577524171767
BEIDOU-3 G4             
1 56564U 23066A   26168.92452844 -.00000286  00000+0  00000+0 0  9999
2 56564   0.4856 331.7510 0004348 180.5639 226.7214  1.00273446 11409
STARLINK-30122          
1 56688U 23067A   26168.05208635  .00000829  00000+0  39637-4 0  9993
2 56688  43.0033  76.9131 0001157 276.3757  83.6963 15.27583376170882
STARLINK-30129          
1 56689U 23067B   26168.03360261  .00000809  00000+0  38909-4 0  9995
2 56689  43.0017  80.1898 0000507 232.6635 127.4170 15.27585305170779
STARLINK-30124          
1 56690U 23067C   26168.04003572  .00001300  00000+0  56748-4 0  9995
2 56690  43.0001  80.2487 0001156 266.8296  93.2423 15.27575207170773
STARLINK-30036          
1 56692U 23067E   26168.03104042  .00000652  00000+0  33207-4 0  9994
2 56692  43.0024  80.2000 0001277 253.0285 107.0426 15.27579778169649
STARLINK-30067          
1 56693U 23067F   26168.03746741  .00000485  00000+0  27155-4 0  9992
2 56693  43.0039  80.2478 0001431 264.7824  95.2865 15.27579174170776
STARLINK-30126          
1 56694U 23067G   26167.43327529  .00000888  00000+0  41798-4 0  9991
2 56694  43.0047  76.6458 0001313 256.5859 103.4847 15.27578532170767
STARLINK-30121          
1 56695U 23067H   26168.04131433  .00001452  00000+0  62254-4 0  9995
2 56695  43.0027  80.2565 0001130 266.0988  93.9734 15.27584390170770
STARLINK-30130          
1 56697U 23067K   26168.01710140  .00001367  00000+0  59174-4 0  9994
2 56697  43.0103  69.8743 0000628 251.4243 108.6541 15.27585727170631
STARLINK-30068          
1 56698U 23067L   26165.42864855 -.00000604  00000+0 -12434-4 0  9993
2 56698  43.0061  73.5605 0001035 247.7408 112.3334 15.27574269170369
STARLINK-30127          
1 56699U 23067M   26167.06823732  .00000441  00000+0  25545-4 0  9999
2 56699  43.0036  85.8708 0000981 266.0480  94.0260 15.27578535170628
STARLINK-30053          
1 56700U 23067N   26168.03894642  .00001315  00000+0  57310-4 0  9994
2 56700  43.0068  70.0447 0001928 282.2845  77.7791 15.27577438170896
